[{"OBJECT_NAME":"SL-8 R/B","OBJECT_ID":"1991-006B","EPOCH":"2026-03-31T04:42:05.452416","MEAN_MOTION":13.77497744,"ECCENTRICITY":0.00216906,"INCLINATION":82.9441,"RA_OF_ASC_NODE":154.0567,"ARG_OF_PERICENTER":338.3737,"MEAN_ANOMALY":75.3636,"EPHEMERIS_TYPE":0,"CLASSIFICATION_TYPE":"U","NORAD_CAT_ID":21088,"ELEMENT_SET_NO":999,"REV_AT_EPOCH":76703,"BSTAR":0.00011539176,"MEAN_MOTION_DOT":1.3e-6,"MEAN_MOTION_DDOT":0},{"OBJECT_NAME":"OKEAN-3","OBJECT_ID":"1991-039A","EPOCH":"2026-03-31T02:09:04.781088","MEAN_MOTION":15.04929646,"ECCENTRICITY":0.00124371,"INCLINATION":82.5158,"RA_OF_ASC_NODE":316.1083,"ARG_OF_PERICENTER":257.8124,"MEAN_ANOMALY":102.171,"EPHEMERIS_TYPE":0,"CLASSIFICATION_TYPE":"U","NORAD_CAT_ID":21397,"ELEMENT_SET_NO":999,"REV_AT_EPOCH":86825,"BSTAR":0.00025540119,"MEAN_MOTION_DOT":3.649e-5,"MEAN_MOTION_DDOT":0},{"OBJECT_NAME":"COSMOS 2151","OBJECT_ID":"1991-042A","EPOCH":"2026-03-31T05:28:19.259616","MEAN_MOTION":15.00200284,"ECCENTRICITY":0.00120977,"INCLINATION":82.4948,"RA_OF_ASC_NODE":62.8931,"ARG_OF_PERICENTER":355.4974,"MEAN_ANOMALY":4.6139,"EPHEMERIS_TYPE":0,"CLASSIFICATION_TYPE":"U","NORAD_CAT_ID":21422,"ELEMENT_SET_NO":999,"REV_AT_EPOCH":86642,"BSTAR":0.00021811951,"MEAN_MOTION_DOT":2.755e-5,"MEAN_MOTION_DDOT":0},{"OBJECT_NAME":"SL-14 R/B","OBJECT_ID":"1991-042B","EPOCH":"2026-03-31T07:09:35.878752","MEAN_MOTION":14.81851955,"ECCENTRICITY":0.0017422,"INCLINATION":82.4957,"RA_OF_ASC_NODE":199.924,"ARG_OF_PERICENTER":165.4964,"MEAN_ANOMALY":194.6754,"EPHEMERIS_TYPE":0,"CLASSIFICATION_TYPE":"U","NORAD_CAT_ID":21423,"ELEMENT_SET_NO":999,"REV_AT_EPOCH":85627,"BSTAR":7.5380654e-5,"MEAN_MOTION_DOT":6.2e-6,"MEAN_MOTION_DDOT":0},{"OBJECT_NAME":"ERS-1","OBJECT_ID":"1991-050A","EPOCH":"2026-03-31T07:33:48.439008","MEAN_MOTION":14.39466013,"ECCENTRICITY":0.00327889,"INCLINATION":98.7863,"RA_OF_ASC_NODE":109.0921,"ARG_OF_PERICENTER":136.7691,"MEAN_ANOMALY":223.6079,"EPHEMERIS_TYPE":0,"CLASSIFICATION_TYPE":"U","NORAD_CAT_ID":21574,"ELEMENT_SET_NO":999,"REV_AT_EPOCH":81884,"BSTAR":0.00014906938,"MEAN_MOTION_DOT":4.21e-6,"MEAN_MOTION_DDOT":0},{"OBJECT_NAME":"ARIANE 40 R/B","OBJECT_ID":"1991-050F","EPOCH":"2026-03-31T04:13:22.973376","MEAN_MOTION":14.4290936,"ECCENTRICITY":0.00034144,"INCLINATION":98.1967,"RA_OF_ASC_NODE":141.6015,"ARG_OF_PERICENTER":32.0181,"MEAN_ANOMALY":328.1216,"EPHEMERIS_TYPE":0,"CLASSIFICATION_TYPE":"U","NORAD_CAT_ID":21610,"ELEMENT_SET_NO":999,"REV_AT_EPOCH":82209,"BSTAR":0.00013012513,"MEAN_MOTION_DOT":3.93e-6,"MEAN_MOTION_DDOT":0},{"OBJECT_NAME":"INTERCOSMOS 25","OBJECT_ID":"1991-086A","EPOCH":"2026-03-31T00:53:34.035072","MEAN_MOTION":12.12073011,"ECCENTRICITY":0.14864507,"INCLINATION":82.6005,"RA_OF_ASC_NODE":297.1021,"ARG_OF_PERICENTER":70.9381,"MEAN_ANOMALY":304.6424,"EPHEMERIS_TYPE":0,"CLASSIFICATION_TYPE":"U","NORAD_CAT_ID":21819,"ELEMENT_SET_NO":999,"REV_AT_EPOCH":49927,"BSTAR":0.00044197056,"MEAN_MOTION_DOT":2.286e-5,"MEAN_MOTION_DDOT":0},{"OBJECT_NAME":"SL-8 R/B","OBJECT_ID":"1992-008B","EPOCH":"2026-03-31T04:41:58.616448","MEAN_MOTION":13.75969543,"ECCENTRICITY":0.00358546,"INCLINATION":82.9235,"RA_OF_ASC_NODE":251.776,"ARG_OF_PERICENTER":75.3183,"MEAN_ANOMALY":97.1365,"EPHEMERIS_TYPE":0,"CLASSIFICATION_TYPE":"U","NORAD_CAT_ID":21876,"ELEMENT_SET_NO":999,"REV_AT_EPOCH":71237,"BSTAR":-4.575138e-6,"MEAN_MOTION_DOT":1.1e-7,"MEAN_MOTION_DDOT":0},{"OBJECT_NAME":"SL-8 R/B","OBJECT_ID":"1992-020B","EPOCH":"2026-03-31T05:22:33.836736","MEAN_MOTION":13.75550588,"ECCENTRICITY":0.00278542,"INCLINATION":82.9299,"RA_OF_ASC_NODE":137.7724,"ARG_OF_PERICENTER":235.8758,"MEAN_ANOMALY":190.0905,"EPHEMERIS_TYPE":0,"CLASSIFICATION_TYPE":"U","NORAD_CAT_ID":21938,"ELEMENT_SET_NO":999,"REV_AT_EPOCH":70409,"BSTAR":3.004403e-5,"MEAN_MOTION_DOT":4.4e-7,"MEAN_MOTION_DDOT":0},{"OBJECT_NAME":"USA 81","OBJECT_ID":"1992-023A","EPOCH":"2026-03-31T07:33:05.444640","MEAN_MOTION":14.32375053,"ECCENTRICITY":0.00016728,"INCLINATION":85.0044,"RA_OF_ASC_NODE":118.9609,"ARG_OF_PERICENTER":68.338,"MEAN_ANOMALY":291.7991,"EPHEMERIS_TYPE":0,"CLASSIFICATION_TYPE":"U","NORAD_CAT_ID":21949,"ELEMENT_SET_NO":999,"REV_AT_EPOCH":9788,"BSTAR":7.6984675e-5,"MEAN_MOTION_DOT":2.28e-6,"MEAN_MOTION_DDOT":0},{"OBJECT_NAME":"COSMOS 2219","OBJECT_ID":"1992-076A","EPOCH":"2026-03-31T04:00:14.887872","MEAN_MOTION":14.14090043,"ECCENTRICITY":0.00178061,"INCLINATION":71.0618,"RA_OF_ASC_NODE":333.1755,"ARG_OF_PERICENTER":175.1248,"MEAN_ANOMALY":185.0052,"EPHEMERIS_TYPE":0,"CLASSIFICATION_TYPE":"U","NORAD_CAT_ID":22219,"ELEMENT_SET_NO":999,"REV_AT_EPOCH":72141,"BSTAR":-8.6515096e-5,"MEAN_MOTION_DOT":-2.12e-6,"MEAN_MOTION_DDOT":0},{"OBJECT_NAME":"SL-16 R/B","OBJECT_ID":"1992-076B","EPOCH":"2026-03-31T05:31:32.526912","MEAN_MOTION":14.16863454,"ECCENTRICITY":0.00107643,"INCLINATION":70.9992,"RA_OF_ASC_NODE":143.0023,"ARG_OF_PERICENTER":56.2578,"MEAN_ANOMALY":8.8383,"EPHEMERIS_TYPE":0,"CLASSIFICATION_TYPE":"U","NORAD_CAT_ID":22220,"ELEMENT_SET_NO":999,"REV_AT_EPOCH":72488,"BSTAR":-6.9308276e-5,"MEAN_MOTION_DOT":-1.87e-6,"MEAN_MOTION_DDOT":0},{"OBJECT_NAME":"COSMOS 2221","OBJECT_ID":"1992-080A","EPOCH":"2026-03-30T23:17:55.195008","MEAN_MOTION":14.96292393,"ECCENTRICITY":0.00155425,"INCLINATION":82.5005,"RA_OF_ASC_NODE":258.6893,"ARG_OF_PERICENTER":118.738,"MEAN_ANOMALY":241.5406,"EPHEMERIS_TYPE":0,"CLASSIFICATION_TYPE":"U","NORAD_CAT_ID":22236,"ELEMENT_SET_NO":999,"REV_AT_EPOCH":78397,"BSTAR":0.00024987397,"MEAN_MOTION_DOT":2.855e-5,"MEAN_MOTION_DDOT":0},{"OBJECT_NAME":"SL-16 R/B","OBJECT_ID":"1992-093B","EPOCH":"2026-03-31T01:57:52.423200","MEAN_MOTION":14.15455616,"ECCENTRICITY":0.00065558,"INCLINATION":71.0228,"RA_OF_ASC_NODE":319.3606,"ARG_OF_PERICENTER":273.0739,"MEAN_ANOMALY":86.9633,"EPHEMERIS_TYPE":0,"CLASSIFICATION_TYPE":"U","NORAD_CAT_ID":22285,"ELEMENT_SET_NO":999,"REV_AT_EPOCH":71618,"BSTAR":8.3002463e-5,"MEAN_MOTION_DOT":1.15e-6,"MEAN_MOTION_DDOT":0},{"OBJECT_NAME":"COSMOS 2228","OBJECT_ID":"1992-094A","EPOCH":"2026-03-31T07:22:08.932512","MEAN_MOTION":14.97305867,"ECCENTRICITY":0.00170093,"INCLINATION":82.5191,"RA_OF_ASC_NODE":216.6125,"ARG_OF_PERICENTER":225.9756,"MEAN_ANOMALY":134.0066,"EPHEMERIS_TYPE":0,"CLASSIFICATION_TYPE":"U","NORAD_CAT_ID":22286,"ELEMENT_SET_NO":999,"REV_AT_EPOCH":77929,"BSTAR":0.00030184042,"MEAN_MOTION_DOT":3.535e-5,"MEAN_MOTION_DDOT":0},{"OBJECT_NAME":"SL-16 R/B","OBJECT_ID":"1993-016B","EPOCH":"2026-03-31T04:40:56.436096","MEAN_MOTION":14.15306052,"ECCENTRICITY":0.00123457,"INCLINATION":71.0075,"RA_OF_ASC_NODE":170.0169,"ARG_OF_PERICENTER":286.4108,"MEAN_ANOMALY":73.5657,"EPHEMERIS_TYPE":0,"CLASSIFICATION_TYPE":"U","NORAD_CAT_ID":22566,"ELEMENT_SET_NO":999,"REV_AT_EPOCH":70521,"BSTAR":9.7474986e-5,"MEAN_MOTION_DOT":1.42e-6,"MEAN_MOTION_DDOT":0},{"OBJECT_NAME":"COSMOS 2242","OBJECT_ID":"1993-024A","EPOCH":"2026-03-31T03:57:27.169920","MEAN_MOTION":14.96643554,"ECCENTRICITY":0.00152032,"INCLINATION":82.5167,"RA_OF_ASC_NODE":246.1693,"ARG_OF_PERICENTER":229.9227,"MEAN_ANOMALY":130.0663,"EPHEMERIS_TYPE":0,"CLASSIFICATION_TYPE":"U","NORAD_CAT_ID":22626,"ELEMENT_SET_NO":999,"REV_AT_EPOCH":78360,"BSTAR":0.00029049728,"MEAN_MOTION_DOT":3.344e-5,"MEAN_MOTION_DDOT":0}]
